[{"OBJECT_NAME":"JILIN-1 06","OBJECT_ID":"2017-074C","EPOCH":"2026-03-09T22:46:57.173376","MEAN_MOTION":15.32444387,"ECCENTRICITY":0.00061285,"INCLINATION":97.4715,"RA_OF_ASC_NODE":171.0354,"ARG_OF_PERICENTER":223.0031,"MEAN_ANOMALY":137.0732,"EPHEMERIS_TYPE":0,"CLASSIFICATION_TYPE":"U","NORAD_CAT_ID":43024,"ELEMENT_SET_NO":999,"REV_AT_EPOCH":45863,"BSTAR":0.00028431628,"MEAN_MOTION_DOT":8.833e-5,"MEAN_MOTION_DDOT":0},{"OBJECT_NAME":"STARLINK-35548","OBJECT_ID":"2025-243AC","EPOCH":"2026-03-09T18:06:26.286624","MEAN_MOTION":15.30193505,"ECCENTRICITY":0.00011366,"INCLINATION":53.1599,"RA_OF_ASC_NODE":244.9529,"ARG_OF_PERICENTER":65.1193,"MEAN_ANOMALY":294.9926,"EPHEMERIS_TYPE":0,"CLASSIFICATION_TYPE":"U","NORAD_CAT_ID":66203,"ELEMENT_SET_NO":999,"REV_AT_EPOCH":2066,"BSTAR":0.00080914293,"MEAN_MOTION_DOT":0.00023677,"MEAN_MOTION_DDOT":0}]
